0 SL-6 R/B(2)
1 33450U 08062D   13288.09454591 -.00000161  00000-0 -10223-1 0  8538
2 33450 064.7923 195.9382 6941736 272.3553 192.7354 02.05245274 36469
0 SL-6 R/B(2)
1 33450U 08062D   13290.25218190 -.00000675  00000-0 -62978-2 0  8548
2 33450 064.7919 195.6903 6941136 272.3176 347.0169 02.05247563 36513
0 SL-6 R/B(2)
1 33450U 08062D   13294.19001320 -.00000719  00000-0  10000-3 0  8559
2 33450 064.7941 195.2319 6940101 272.2414 016.6838 02.05240042 36595
0 SL-6 R/B(2)
1 33450U 08062D   13294.67536826 -.00000650  00000-0 -85438-2 0  8568
2 33450 064.7913 195.1834 6940083 272.2411 015.3015 02.05241071 36609
